SCD 1                   
1 22490U 93009B   26062.22655997  .00000541  00000+0  97095-4 0  9992
2 22490  24.9681 141.7924 0042216  96.4890 295.8397 14.46063084745766
TECHSAT 1B (GO-32)      
1 25397U 98043D   26062.55859358  .00000117  00000+0  70908-4 0  9990
2 25397  99.0020  52.6812 0001875 129.2562 230.8782 14.24404107436291
SCD 2                   
1 25504U 98060A   26063.16934020  .00000587  00000+0  11294-3 0  9990
2 25504  24.9967 359.7833 0016990  93.4899  36.6782 14.45479573445116
DLR-TUBSAT              
1 25757U 99029B   26062.95903538  .00000214  00000+0  64381-4 0  9995
2 25757  98.6658  55.0241 0013359 313.5375  46.4709 14.52395000417972
TERRA                   
1 25994U 99068A   26063.16861737  .00000655  00000+0  14267-3 0  9995
2 25994  97.9604 116.8140 0002341 164.7813 260.5333 14.61008222394270
MAROC-TUBSAT            
1 27004U 01056D   26063.08722080 -.00000020  00000+0  30296-4 0  9995
2 27004  99.8002 237.9836 0020425  53.5116  58.0998 13.70257710211797
AQUA                    
1 27424U 02022A   26063.14105017  .00001519  00000+0  31298-3 0  9992
2 27424  98.4165  30.4053 0000642  59.4152   2.9589 14.61961369267922
IRS-P6 (RESOURCESAT-1)  
1 28051U 03046A   26063.16637163  .00000262  00000+0  10191-3 0  9993
2 28051  98.2056 104.7572 0063072 297.9734 137.8089 14.36113225165458
SHIYAN-1 (SY-1)         
1 28220U 04012A   26063.11545951  .00019589  00000+0  65881-3 0  9991
2 28220  97.8782 134.5566 0006306  41.8116 318.3604 15.30836455195003
AURA                    
1 28376U 04026A   26063.08163987  .00001477  00000+0  31007-3 0  9999
2 28376  98.3302  18.7485 0001022  78.4005 281.7310 14.61133568150865
IRS-P5 (CARTOSAT-1)     
1 28649U 05017A   26063.04339947  .00002278  00000+0  23721-3 0  9994
2 28649  97.5421  90.8423 0002470  75.1501 284.9992 14.90742755128151
SINAH 1                 
1 28893U 05043D   26063.15051767  .00000716  00000+0  14561-3 0  9994
2 28893  98.2674 196.9603 0013411 242.9617 117.0216 14.64065955 85155
RESURS-DK 1             
1 29228U 06021A   26062.91484494  .00003579  00000+0  21006-3 0  9996
2 29228  69.9304 251.9622 0002432 165.6205 194.5031 15.12697372 86650
ARIRANG-2 (KOMPSAT-2)   
1 29268U 06031A   26063.16556704  .00000224  00000+0  50641-4 0  9995
2 29268  97.8292 252.6856 0015565  50.0336  85.3217 14.64581779 46108
LAPAN-TUBSAT            
1 29709U 07001A   26063.20302446  .00000727  00000+0  90122-4 0  9996
2 29709  98.1319  60.0809 0012427 161.4511 198.7159 14.85818862 35568
HAIYANG-1B              
1 31113U 07010A   26062.84412722  .00000158  00000+0  75606-4 0  9994
2 31113  98.3419  48.8190 0014015 149.2309 210.9699 14.30997277985562
COSMO-SKYMED 1          
1 31598U 07023A   26063.18166340  .00004929  00000+0  43923-3 0  9991
2 31598  97.8861 254.1701 0000823  90.6181 269.5134 14.96483104 14088
