[{"OBJECT_NAME":"SCD 1","OBJECT_ID":"1993-009B","EPOCH":"2026-03-03T05:26:14.781408","MEAN_MOTION":14.46063084,"ECCENTRICITY":0.00422169,"INCLINATION":24.9681,"RA_OF_ASC_NODE":141.7924,"ARG_OF_PERICENTER":96.489,"MEAN_ANOMALY":295.8397,"EPHEMERIS_TYPE":0,"CLASSIFICATION_TYPE":"U","NORAD_CAT_ID":22490,"ELEMENT_SET_NO":999,"REV_AT_EPOCH":74576,"BSTAR":9.7095329e-5,"MEAN_MOTION_DOT":5.41e-6,"MEAN_MOTION_DDOT":0},{"OBJECT_NAME":"TECHSAT 1B (GO-32)","OBJECT_ID":"1998-043D","EPOCH":"2026-03-03T13:24:22.485312","MEAN_MOTION":14.24404107,"ECCENTRICITY":0.0001875,"INCLINATION":99.002,"RA_OF_ASC_NODE":52.6812,"ARG_OF_PERICENTER":129.2562,"MEAN_ANOMALY":230.8782,"EPHEMERIS_TYPE":0,"CLASSIFICATION_TYPE":"U","NORAD_CAT_ID":25397,"ELEMENT_SET_NO":999,"REV_AT_EPOCH":43629,"BSTAR":7.0908e-5,"MEAN_MOTION_DOT":1.17e-6,"MEAN_MOTION_DDOT":0},{"OBJECT_NAME":"SCD 2","OBJECT_ID":"1998-060A","EPOCH":"2026-03-04T04:03:50.993280","MEAN_MOTION":14.45479573,"ECCENTRICITY":0.001699,"INCLINATION":24.9967,"RA_OF_ASC_NODE":359.7833,"ARG_OF_PERICENTER":93.4899,"MEAN_ANOMALY":36.6782,"EPHEMERIS_TYPE":0,"CLASSIFICATION_TYPE":"U","NORAD_CAT_ID":25504,"ELEMENT_SET_NO":999,"REV_AT_EPOCH":44511,"BSTAR":0.00011294,"MEAN_MOTION_DOT":5.87e-6,"MEAN_MOTION_DDOT":0},{"OBJECT_NAME":"DLR-TUBSAT","OBJECT_ID":"1999-029B","EPOCH":"2026-03-03T23:01:00.656832","MEAN_MOTION":14.52395,"ECCENTRICITY":0.0013359,"INCLINATION":98.6658,"RA_OF_ASC_NODE":55.0241,"ARG_OF_PERICENTER":313.5375,"MEAN_ANOMALY":46.4709,"EPHEMERIS_TYPE":0,"CLASSIFICATION_TYPE":"U","NORAD_CAT_ID":25757,"ELEMENT_SET_NO":999,"REV_AT_EPOCH":41797,"BSTAR":6.4381e-5,"MEAN_MOTION_DOT":2.14e-6,"MEAN_MOTION_DDOT":0},{"OBJECT_NAME":"TERRA","OBJECT_ID":"1999-068A","EPOCH":"2026-03-04T04:02:48.540768","MEAN_MOTION":14.61008222,"ECCENTRICITY":0.0002341,"INCLINATION":97.9604,"RA_OF_ASC_NODE":116.814,"ARG_OF_PERICENTER":164.7813,"MEAN_ANOMALY":260.5333,"EPHEMERIS_TYPE":0,"CLASSIFICATION_TYPE":"U","NORAD_CAT_ID":25994,"ELEMENT_SET_NO":999,"REV_AT_EPOCH":39427,"BSTAR":0.00014267,"MEAN_MOTION_DOT":6.55e-6,"MEAN_MOTION_DDOT":0},{"OBJECT_NAME":"MAROC-TUBSAT","OBJECT_ID":"2001-056D","EPOCH":"2026-03-04T02:05:35.877120","MEAN_MOTION":13.7025771,"ECCENTRICITY":0.0020425,"INCLINATION":99.8002,"RA_OF_ASC_NODE":237.9836,"ARG_OF_PERICENTER":53.5116,"MEAN_ANOMALY":58.0998,"EPHEMERIS_TYPE":0,"CLASSIFICATION_TYPE":"U","NORAD_CAT_ID":27004,"ELEMENT_SET_NO":999,"REV_AT_EPOCH":21179,"BSTAR":3.0296e-5,"MEAN_MOTION_DOT":-2.0e-7,"MEAN_MOTION_DDOT":0},{"OBJECT_NAME":"AQUA","OBJECT_ID":"2002-022A","EPOCH":"2026-03-04T03:23:06.734688","MEAN_MOTION":14.61961369,"ECCENTRICITY":6.42e-5,"INCLINATION":98.4165,"RA_OF_ASC_NODE":30.4053,"ARG_OF_PERICENTER":59.4152,"MEAN_ANOMALY":2.9589,"EPHEMERIS_TYPE":0,"CLASSIFICATION_TYPE":"U","NORAD_CAT_ID":27424,"ELEMENT_SET_NO":999,"REV_AT_EPOCH":26792,"BSTAR":0.00031298,"MEAN_MOTION_DOT":1.519e-5,"MEAN_MOTION_DDOT":0},{"OBJECT_NAME":"IRS-P6 (RESOURCESAT-1)","OBJECT_ID":"2003-046A","EPOCH":"2026-03-04T03:59:34.508832","MEAN_MOTION":14.36113225,"ECCENTRICITY":0.0063072,"INCLINATION":98.2056,"RA_OF_ASC_NODE":104.7572,"ARG_OF_PERICENTER":297.9734,"MEAN_ANOMALY":137.8089,"EPHEMERIS_TYPE":0,"CLASSIFICATION_TYPE":"U","NORAD_CAT_ID":28051,"ELEMENT_SET_NO":999,"REV_AT_EPOCH":16545,"BSTAR":0.00010191,"MEAN_MOTION_DOT":2.62e-6,"MEAN_MOTION_DDOT":0},{"OBJECT_NAME":"SHIYAN-1 (SY-1)","OBJECT_ID":"2004-012A","EPOCH":"2026-03-04T02:46:15.701664","MEAN_MOTION":15.30836455,"ECCENTRICITY":0.0006306,"INCLINATION":97.8782,"RA_OF_ASC_NODE":134.5566,"ARG_OF_PERICENTER":41.8116,"MEAN_ANOMALY":318.3604,"EPHEMERIS_TYPE":0,"CLASSIFICATION_TYPE":"U","NORAD_CAT_ID":28220,"ELEMENT_SET_NO":999,"REV_AT_EPOCH":19500,"BSTAR":0.00065881,"MEAN_MOTION_DOT":0.00019589,"MEAN_MOTION_DDOT":0},{"OBJECT_NAME":"AURA","OBJECT_ID":"2004-026A","EPOCH":"2026-03-04T01:57:33.684768","MEAN_MOTION":14.61133568,"ECCENTRICITY":0.0001022,"INCLINATION":98.3302,"RA_OF_ASC_NODE":18.7485,"ARG_OF_PERICENTER":78.4005,"MEAN_ANOMALY":281.731,"EPHEMERIS_TYPE":0,"CLASSIFICATION_TYPE":"U","NORAD_CAT_ID":28376,"ELEMENT_SET_NO":999,"REV_AT_EPOCH":15086,"BSTAR":0.00031007,"MEAN_MOTION_DOT":1.477e-5,"MEAN_MOTION_DDOT":0},{"OBJECT_NAME":"IRS-P5 (CARTOSAT-1)","OBJECT_ID":"2005-017A","EPOCH":"2026-03-04T01:02:29.714208","MEAN_MOTION":14.90742755,"ECCENTRICITY":0.000247,"INCLINATION":97.5421,"RA_OF_ASC_NODE":90.8423,"ARG_OF_PERICENTER":75.1501,"MEAN_ANOMALY":284.9992,"EPHEMERIS_TYPE":0,"CLASSIFICATION_TYPE":"U","NORAD_CAT_ID":28649,"ELEMENT_SET_NO":999,"REV_AT_EPOCH":12815,"BSTAR":0.00023721,"MEAN_MOTION_DOT":2.278e-5,"MEAN_MOTION_DDOT":0},{"OBJECT_NAME":"SINAH 1","OBJECT_ID":"2005-043D","EPOCH":"2026-03-04T03:36:44.726688","MEAN_MOTION":14.64065955,"ECCENTRICITY":0.0013411,"INCLINATION":98.2674,"RA_OF_ASC_NODE":196.9603,"ARG_OF_PERICENTER":242.9617,"MEAN_ANOMALY":117.0216,"EPHEMERIS_TYPE":0,"CLASSIFICATION_TYPE":"U","NORAD_CAT_ID":28893,"ELEMENT_SET_NO":999,"REV_AT_EPOCH":8515,"BSTAR":0.00014561,"MEAN_MOTION_DOT":7.16e-6,"MEAN_MOTION_DDOT":0},{"OBJECT_NAME":"RESURS-DK 1","OBJECT_ID":"2006-021A","EPOCH":"2026-03-03T21:57:22.602816","MEAN_MOTION":15.12697372,"ECCENTRICITY":0.0002432,"INCLINATION":69.9304,"RA_OF_ASC_NODE":251.9622,"ARG_OF_PERICENTER":165.6205,"MEAN_ANOMALY":194.5031,"EPHEMERIS_TYPE":0,"CLASSIFICATION_TYPE":"U","NORAD_CAT_ID":29228,"ELEMENT_SET_NO":999,"REV_AT_EPOCH":8665,"BSTAR":0.00021006,"MEAN_MOTION_DOT":3.579e-5,"MEAN_MOTION_DDOT":0},{"OBJECT_NAME":"ARIRANG-2 (KOMPSAT-2)","OBJECT_ID":"2006-031A","EPOCH":"2026-03-04T03:58:24.992256","MEAN_MOTION":14.64581779,"ECCENTRICITY":0.0015565,"INCLINATION":97.8292,"RA_OF_ASC_NODE":252.6856,"ARG_OF_PERICENTER":50.0336,"MEAN_ANOMALY":85.3217,"EPHEMERIS_TYPE":0,"CLASSIFICATION_TYPE":"U","NORAD_CAT_ID":29268,"ELEMENT_SET_NO":999,"REV_AT_EPOCH":4610,"BSTAR":5.0641e-5,"MEAN_MOTION_DOT":2.24e-6,"MEAN_MOTION_DDOT":0},{"OBJECT_NAME":"LAPAN-TUBSAT","OBJECT_ID":"2007-001A","EPOCH":"2026-03-04T04:52:21.313344","MEAN_MOTION":14.85818862,"ECCENTRICITY":0.0012427,"INCLINATION":98.1319,"RA_OF_ASC_NODE":60.0809,"ARG_OF_PERICENTER":161.4511,"MEAN_ANOMALY":198.7159,"EPHEMERIS_TYPE":0,"CLASSIFICATION_TYPE":"U","NORAD_CAT_ID":29709,"ELEMENT_SET_NO":999,"REV_AT_EPOCH":3556,"BSTAR":9.0122e-5,"MEAN_MOTION_DOT":7.27e-6,"MEAN_MOTION_DDOT":0},{"OBJECT_NAME":"HAIYANG-1B","OBJECT_ID":"2007-010A","EPOCH":"2026-03-03T20:15:32.591808","MEAN_MOTION":14.30997277,"ECCENTRICITY":0.0014015,"INCLINATION":98.3419,"RA_OF_ASC_NODE":48.819,"ARG_OF_PERICENTER":149.2309,"MEAN_ANOMALY":210.9699,"EPHEMERIS_TYPE":0,"CLASSIFICATION_TYPE":"U","NORAD_CAT_ID":31113,"ELEMENT_SET_NO":999,"REV_AT_EPOCH":98556,"BSTAR":7.5606e-5,"MEAN_MOTION_DOT":1.58e-6,"MEAN_MOTION_DDOT":0},{"OBJECT_NAME":"COSMO-SKYMED 1","OBJECT_ID":"2007-023A","EPOCH":"2026-03-04T04:21:35.717760","MEAN_MOTION":14.96483104,"ECCENTRICITY":8.23e-5,"INCLINATION":97.8861,"RA_OF_ASC_NODE":254.1701,"ARG_OF_PERICENTER":90.6181,"MEAN_ANOMALY":269.5134,"EPHEMERIS_TYPE":0,"CLASSIFICATION_TYPE":"U","NORAD_CAT_ID":31598,"ELEMENT_SET_NO":999,"REV_AT_EPOCH":1408,"BSTAR":0.00043923,"MEAN_MOTION_DOT":4.929e-5,"MEAN_MOTION_DDOT":0}]
